{
  "type": "FeatureCollection",
  "features": [
    {
      "type": "Feature",
      "properties": {
        "norad_id": 37836,
        "name": "EUTELSAT 16A",
        "group": "eutelsat",
        "lat": -0.04245908397391409,
        "lon": -150.3581309680436,
        "alt_km": 35770.909191121245,
        "timestamp": "2025-12-09T07:41:32.874807+00:00",
        "meta_object_name": "EUTELSAT 16A",
        "meta_object_id": "2011-057A",
        "meta_epoch": "2025-12-08T22:14:21.865344",
        "meta_mean_motion": 1.0027081,
        "meta_eccentricity": 0.0005941,
        "meta_inclination": 0.058,
        "meta_ra_of_asc_node": 0.6272,
        "meta_arg_of_pericenter": 261.2785,
        "meta_mean_anomaly": 165.6109,
        "meta_ephemeris_type": 0,
        "meta_classification_type": "U",
        "meta_norad_cat_id": 37836,
        "meta_element_set_no": 999,
        "meta_rev_at_epoch": 542,
        "meta_bstar": 0,
        "meta_mean_motion_dot": 1.06e-06,
        "meta_mean_motion_ddot": 0,
        "tle_line1": "1 37836U 11057A   25342.92664196  .00000106  00000+0  00000+0 0  9995",
        "tle_line2": "2 37836   0.0580   0.6272 0005941 261.2785 165.6109  1.00270810  5427"
      },
      "geometry": {
        "type": "Point",
        "coordinates": [
          -150.3581309680436,
          -0.04245908397391409
        ]
      }
    },
    {
      "type": "Feature",
      "properties": {
        "norad_id": 38992,
        "name": "EUTELSAT 21B",
        "group": "eutelsat",
        "lat": -0.05631694523024518,
        "lon": -144.7371550187918,
        "alt_km": 35777.71131045378,
        "timestamp": "2025-12-09T07:41:32.874819+00:00",
        "meta_object_name": "EUTELSAT 21B",
        "meta_object_id": "2012-062B",
        "meta_epoch": "2025-12-08T22:15:59.208768",
        "meta_mean_motion": 1.00270798,
        "meta_eccentricity": 0.00032566,
        "meta_inclination": 0.0661,
        "meta_ra_of_asc_node": 357.6561,
        "meta_arg_of_pericenter": 269.0326,
        "meta_mean_anomaly": 166.831,
        "meta_ephemeris_type": 0,
        "meta_classification_type": "U",
        "meta_norad_cat_id": 38992,
        "meta_element_set_no": 999,
        "meta_rev_at_epoch": 4792,
        "meta_bstar": 0,
        "meta_mean_motion_dot": 1.32e-06,
        "meta_mean_motion_ddot": 0,
        "tle_line1": "1 38992U 12062B   25342.92776862  .00000132  00000+0  00000+0 0  9999",
        "tle_line2": "2 38992   0.0661 357.6561 0003256 269.0326 166.8310  1.00270798 47924"
      },
      "geometry": {
        "type": "Point",
        "coordinates": [
          -144.7371550187918,
          -0.05631694523024518
        ]
      }
    },
    {
      "type": "Feature",
      "properties": {
        "norad_id": 39020,
        "name": "EUTELSAT 70B",
        "group": "eutelsat",
        "lat": -0.08124366259062554,
        "lon": -95.7720219258355,
        "alt_km": 35768.670018323595,
        "timestamp": "2025-12-09T07:41:32.874831+00:00",
        "meta_object_name": "EUTELSAT 70B",
        "meta_object_id": "2012-069A",
        "meta_epoch": "2025-12-08T20:47:04.580736",
        "meta_mean_motion": 1.00272115,
        "meta_eccentricity": 0.00043035,
        "meta_inclination": 0.0654,
        "meta_ra_of_asc_node": 14.1936,
        "meta_arg_of_pericenter": 231.8862,
        "meta_mean_anomaly": 214.0699,
        "meta_ephemeris_type": 0,
        "meta_classification_type": "U",
        "meta_norad_cat_id": 39020,
        "meta_element_set_no": 999,
        "meta_rev_at_epoch": 4760,
        "meta_bstar": 0,
        "meta_mean_motion_dot": -4.2e-07,
        "meta_mean_motion_ddot": 0,
        "tle_line1": "1 39020U 12069A   25342.86602524 -.00000042  00000+0  00000+0 0  9996",
        "tle_line2": "2 39020   0.0654  14.1936 0004303 231.8862 214.0699  1.00272115 47602"
      },
      "geometry": {
        "type": "Point",
        "coordinates": [
          -95.7720219258355,
          -0.08124366259062554
        ]
      }
    },
    {
      "type": "Feature",
      "properties": {
        "norad_id": 39122,
        "name": "EUTELSAT 117 WEST A",
        "group": "eutelsat",
        "lat": 0.03341160597884422,
        "lon": 76.89573999375985,
        "alt_km": 35799.47070672447,
        "timestamp": "2025-12-09T07:41:32.874843+00:00",
        "meta_object_name": "EUTELSAT 117 WEST A",
        "meta_object_id": "2013-012A",
        "meta_epoch": "2025-12-08T21:36:32.988384",
        "meta_mean_motion": 1.00270554,
        "meta_eccentricity": 0.00030887,
        "meta_inclination": 0.0126,
        "meta_ra_of_asc_node": 343.7041,
        "meta_arg_of_pericenter": 275.9296,
        "meta_mean_anomaly": 25.6021,
        "meta_ephemeris_type": 0,
        "meta_classification_type": "U",
        "meta_norad_cat_id": 39122,
        "meta_element_set_no": 999,
        "meta_rev_at_epoch": 4652,
        "meta_bstar": 0,
        "meta_mean_motion_dot": -1.1e-07,
        "meta_mean_motion_ddot": 0,
        "tle_line1": "1 39122U 13012A   25342.90038181 -.00000011  00000+0  00000+0 0  9991",
        "tle_line2": "2 39122   0.0126 343.7041 0003088 275.9296  25.6021  1.00270554 46526"
      },
      "geometry": {
        "type": "Point",
        "coordinates": [
          76.89573999375985,
          0.03341160597884422
        ]
      }
    },
    {
      "type": "Feature",
      "properties": {
        "norad_id": 39163,
        "name": "EUTELSAT 7B",
        "group": "eutelsat",
        "lat": -0.019756679064922098,
        "lon": -159.36468403988243,
        "alt_km": 35793.74808933603,
        "timestamp": "2025-12-09T07:41:32.874856+00:00",
        "meta_object_name": "EUTELSAT 7B",
        "meta_object_id": "2013-022A",
        "meta_epoch": "2025-12-08T22:21:38.733120",
        "meta_mean_motion": 1.0027143,
        "meta_eccentricity": 0.00045601,
        "meta_inclination": 0.0704,
        "meta_ra_of_asc_node": 13.6916,
        "meta_arg_of_pericenter": 300.4853,
        "meta_mean_anomaly": 106.1514,
        "meta_ephemeris_type": 0,
        "meta_classification_type": "U",
        "meta_norad_cat_id": 39163,
        "meta_element_set_no": 999,
        "meta_rev_at_epoch": 4604,
        "meta_bstar": 0,
        "meta_mean_motion_dot": 5e-07,
        "meta_mean_motion_ddot": 0,
        "tle_line1": "1 39163U 13022A   25342.93169830  .00000050  00000+0  00000+0 0  9998",
        "tle_line2": "2 39163   0.0704  13.6916 0004560 300.4853 106.1514  1.00271430 46049"
      },
      "geometry": {
        "type": "Point",
        "coordinates": [
          -159.36468403988243,
          -0.019756679064922098
        ]
      }
    },
    {
      "type": "Feature",
      "properties": {
        "norad_id": 39612,
        "name": "EXPRESS-AT1",
        "group": "eutelsat",
        "lat": -0.03268655124126412,
        "lon": -110.29753654388541,
        "alt_km": 35785.0280237486,
        "timestamp": "2025-12-09T07:41:32.874868+00:00",
        "meta_object_name": "EXPRESS-AT1",
        "meta_object_id": "2014-010A",
        "meta_epoch": "2025-12-08T20:48:38.730816",
        "meta_mean_motion": 1.00269923,
        "meta_eccentricity": 6.441e-05,
        "meta_inclination": 0.0183,
        "meta_ra_of_asc_node": 306.8649,
        "meta_arg_of_pericenter": 247.3139,
        "meta_mean_anomaly": 251.8516,
        "meta_ephemeris_type": 0,
        "meta_classification_type": "U",
        "meta_norad_cat_id": 39612,
        "meta_element_set_no": 999,
        "meta_rev_at_epoch": 4291,
        "meta_bstar": 0,
        "meta_mean_motion_dot": 8.1e-07,
        "meta_mean_motion_ddot": 0,
        "tle_line1": "1 39612U 14010A   25342.86711494  .00000081  00000+0  00000+0 0  9990",
        "tle_line2": "2 39612   0.0183 306.8649 0000644 247.3139 251.8516  1.00269923 42910"
      },
      "geometry": {
        "type": "Point",
        "coordinates": [
          -110.29753654388541,
          -0.03268655124126412
        ]
      }
    },
    {
      "type": "Feature",
      "properties": {
        "norad_id": 39613,
        "name": "EXPRESS-AT2",
        "group": "eutelsat",
        "lat": 0.006867244630836198,
        "lon": -26.425068724185824,
        "alt_km": 35781.649768189774,
        "timestamp": "2025-12-09T07:41:32.874890+00:00",
        "meta_object_name": "EXPRESS-AT2",
        "meta_object_id": "2014-010B",
        "meta_epoch": "2025-12-08T22:49:48.470880",
        "meta_mean_motion": 1.00272532,
        "meta_eccentricity": 0.00015663,
        "meta_inclination": 0.018,
        "meta_ra_of_asc_node": 310.8586,
        "meta_arg_of_pericenter": 332.9844,
        "meta_mean_anomaly": 276.4219,
        "meta_ephemeris_type": 0,
        "meta_classification_type": "U",
        "meta_norad_cat_id": 39613,
        "meta_element_set_no": 999,
        "meta_rev_at_epoch": 4259,
        "meta_bstar": 0,
        "meta_mean_motion_dot": -2.79e-06,
        "meta_mean_motion_ddot": 0,
        "tle_line1": "1 39613U 14010B   25342.95125545 -.00000279  00000+0  00000+0 0  9997",
        "tle_line2": "2 39613   0.0180 310.8586 0001566 332.9844 276.4219  1.00272532 42598"
      },
      "geometry": {
        "type": "Point",
        "coordinates": [
          -26.425068724185824,
          0.006867244630836198
        ]
      }
    }
  ]
}